#cP2021 11  3  0  0  0.00000000      96   u+U IGb14 FIT  GFZ                    
## 2182 259200.00000000   900.00000000 59521 0.0000000000000                    
+   52   G01G02G03G04G05G06G07G08G09G10G11G12G13G14G15G16G17                    
+        G18G19G20G21G22G23G24G25G26G27G28G29G30G31G32R01R02                    
+        R03R05R07R08R09R11R12R13R14R15R16R17R18R19R20R21R22                    
+        R24 00 00 00 00 00 00 00 00 00 00 00 00 00 00 00 00                    
+         00 00 00 00 00 00 00 00 00 00 00 00 00 00 00 00 00                    
++         5  5  5  5  7  5  5  5  7  8  6  6  5  6  6  7  5                    
++         6  5  6  5  8  7  5  6  9  6  9  7  5  7  5  6  5                    
++         5  7  6  5  9  6  6 10  5  7 10  5  7 10 10  6 10                    
++         6  0  0  0  0  0  0  0  0  0  0  0  0  0  0  0  0                    
++         0  0  0  0  0  0  0  0  0  0  0  0  0  0  0  0  0                    
%c M  cc GPS ccc cccc cccc cccc cccc ccccc ccccc ccccc ccccc                    
%c cc cc ccc ccc cccc cccc cccc cccc ccccc ccccc ccccc ccccc                    
%f  1.2500000  1.025000000  0.00000000000  0.000000000000000                    
%f  0.0000000  0.000000000  0.00000000000  0.000000000000000                    
%i    0    0    0    0      0      0      0      0         0                    
%i    0    0    0    0      0      0      0      0         0                    
/* PCV:IGS14_2178 OL/AL:FES2004  NONE     YN CLK:CoN ORB:CoN                    
/*     GeoForschungsZentrum Potsdam                                             
/*                                                                              
/*                                                                              
*  2021 11  3  6  0  0.00000000                                                 
PG01  13364.716358  -7961.212778  21195.751965    521.390633                    
PG02 -13852.764628 -15606.169380 -15725.736568   -640.373335                    
PG03  22967.734016 -12070.159937   5320.321110     -4.631009                    
PG04  20524.235513  -2881.759692 -16650.079366   -202.649691                    
PG05 -20388.144190    533.712472 -17260.599324    -59.792932                    
PG06  -5865.521136 -25356.284616  -5079.672983    108.938332                    
PG07   6676.278614 -22136.084712 -12248.696878    272.461868                    
PG08  25178.074818   5365.507027   7176.355355    -42.598917                    
PG09  10359.326954 -12053.946226 -21356.621041   -361.883544                    
PG10  -4262.272806  18653.578284  18415.223015   -237.736485                    
PG11 -11878.513596 -17662.860479 -15905.731225     20.606268                    
PG12 -23794.260137   9558.977211   6393.616774   -120.802394                    
PG13 -23079.988512 -13225.163753   1380.242782    208.957093                    
PG14   5123.428393 -18721.782873  18104.015945    -31.241189                    
PG15 -25579.929436  -2522.646821   6944.269039   -109.277939                    
PG16  18501.371890   4159.569896 -19035.804090   -417.723076                    
PG17  -3422.413215 -17214.515012  20368.354199    528.303261                    
PG18  -6086.730780  23080.671586 -11549.467463    301.289277                    
PG19 -12416.936014 -18452.326759  14378.503620     74.253765                    
PG20 -12985.978593  -9068.877166 -21321.791808    518.318685                    
PG21  15930.541326   1626.431091  21940.276659    149.837437                    
PG22  22062.987692  -6782.459061  13128.009897   -473.923999                    
PG23 -14813.798119  19733.701108   9695.110868     37.442251                    
PG24 -15286.439884   3309.829228  21184.785807    262.629492                    
PG25 -19800.996154  17220.055550  -3254.782987    234.609150                    
PG26   7431.993055  14015.201001 -21340.451769    151.497160                    
PG27  23446.702830  12638.221708  -2814.140570   -214.433596                    
PG28  -1821.353924 -16097.087799  21628.767116    470.274768                    
PG29 -14385.496766   8039.434626 -20884.363629   -435.287689                    
PG30   -302.975451 -26310.631042  -2427.684871   -488.080528                    
PG31   7162.875156  24219.489613  -7495.730538   -148.223994                    
PG32   8359.466918  17673.960234  18175.038326    -17.387551                    
PR01  12954.650166 -10255.969542 -19437.413358     87.593239                    
PR02  -8941.189439  -9905.801186 -21691.583568    498.801022                    
PR03 -23131.089991  -3715.977744  -9983.590331     45.793185                    
PR05 -11734.333085   9987.258633  20321.145834     81.795406                    
PR07  23488.160571   3457.856355   9425.280909    -40.221533                    
PR08  24105.294039  -4420.377876  -7080.615258    -61.812122                    
PR09     72.488249  18875.231169 -17175.371454     21.561317                    
PR11  14947.285057 -13184.012327 -15899.717524     50.661792                    
PR12  11014.042453 -22980.664664   1389.221986    275.309274                    
PR13    727.358358 -19303.616826  16648.256257    -63.015276                    
PR14 -10613.484130  -3574.743530  22933.523768     70.608550                    
PR15 -15233.870628  13493.441714  15401.757270    100.440680                    
PR16  -9796.127192  23328.916927  -2633.447743    -24.354642                    
PR17 -16289.778308 -15220.413216 -12428.905347    471.631747                    
PR18 -12002.271120   -205.274652 -22482.777590     95.912597                    
PR19  -2551.087210  14109.266873 -21090.092950   -165.558422                    
PR20  10441.049303  22634.486402  -5483.743711    -58.669395                    
PR21  16151.891401  14256.944145  13632.300825   -251.653445                    
PR22  11558.064028   -545.721458  22733.584374   -142.834730                    
PR24 -11138.269106 -22462.200299   4784.453087     65.392600                    
EOF                                     
